<!DOCTYPE html>
<html>
<head>
  <title>Vertical and Horizontal Centering</title>
  <link rel="stylesheet" href="style.css">
</head>
<body>
  <div class="centered-container">
    <div class="centered-element">
	    012100Z 08009KT CAVOK 27/22 Q1015=<br><br>
	    012100Z: Dia 01, 21:00 UTC, 18:00 em Brasília<br>
	    08009KT: Vento na proa 080 velocidade 09 nós<br>
	    CAVOK: Sem núvens, visibilidade máxima<br>
	    27/22: Temperatura 27C, ponto de orvalho 22C<br>
	    Q1015: Ajustar o altímetro em 1015 hPa.<br>
    </div>
  </div>
</body>
</html>

